[{"OBJECT_NAME":"STARLINK-31293","OBJECT_ID":"2024-027X","EPOCH":"2026-03-09T22:01:04.989504","MEAN_MOTION":15.30219237,"ECCENTRICITY":9.693e-5,"INCLINATION":53.1622,"RA_OF_ASC_NODE":308.5279,"ARG_OF_PERICENTER":86.4007,"MEAN_ANOMALY":273.7105,"EPHEMERIS_TYPE":0,"CLASSIFICATION_TYPE":"U","NORAD_CAT_ID":58952,"ELEMENT_SET_NO":999,"REV_AT_EPOCH":11736,"BSTAR":-0.00023460942,"MEAN_MOTION_DOT":-7.305e-5,"MEAN_MOTION_DDOT":0},{"OBJECT_NAME":"NOAA 17 DEB","OBJECT_ID":"2002-032AF","EPOCH":"2026-03-09T00:24:06.552000","MEAN_MOTION":15.25501717,"ECCENTRICITY":0.00030847,"INCLINATION":98.6472,"RA_OF_ASC_NODE":92.5947,"ARG_OF_PERICENTER":165.9893,"MEAN_ANOMALY":194.1428,"EPHEMERIS_TYPE":0,"CLASSIFICATION_TYPE":"U","NORAD_CAT_ID":48614,"ELEMENT_SET_NO":999,"REV_AT_EPOCH":26420,"BSTAR":0.01090047,"MEAN_MOTION_DOT":0.00286783,"MEAN_MOTION_DDOT":0}]
